SCD 1                   
1 22490U 93009B   25125.91484299  .00000546  00000+0  98675-4 0  9992
2 22490  24.9681 201.6765 0042222 148.0293  12.7369 14.45838279702104
TECHSAT 1B (GO-32)      
1 25397U 98043D   25125.84844244  .00000150  00000+0  85029-4 0  9996
2 25397  98.9684 104.2471 0000860   7.4431 352.6759 14.24305774393340
SCD 2                   
1 25504U 98060A   25125.26394366  .00000585  00000+0  11281-3 0  9996
2 25504  24.9953  67.3252 0017018 132.7479 359.2538 14.45281037401246
DLR-TUBSAT              
1 25757U 99029B   25126.19739870  .00000217  00000+0  65302-4 0  9994
2 25757  98.6334 104.1992 0014876 144.1747 216.0448 14.52259082374277
TERRA                   
1 25994U 99068A   25126.16595771  .00000685  00000+0  14981-3 0  9992
2 25994  98.0007 185.5514 0003652  82.0542 299.3950 14.60665808350303
MAROC-TUBSAT            
1 27004U 01056D   25125.94988834 -.00000005  00000+0  46874-4 0  9991
2 27004  99.7745 290.7336 0020624 105.7292  47.8907 13.70240802170411
AQUA                    
1 27424U 02022A   25126.16936973  .00001561  00000+0  32654-3 0  9990
2 27424  98.3751  84.0013 0001650 107.4134 342.1168 14.61220253223853
IRS-P6 (RESOURCESAT-1)  
1 28051U 03046A   25126.19077906  .00000407  00000+0  15057-3 0  9995
2 28051  98.2439 176.4121 0065598 122.1752 329.6501 14.35960509122146
SHIYAN-1 (SY-1)         
1 28220U 04012A   25125.64163343  .00012257  00000+0  53214-3 0  9990
2 28220  97.9202 174.8588 0007194  19.5736 340.5774 15.22461324148876
AURA                    
1 28376U 04026A   25125.86018344  .00001477  00000+0  31518-3 0  9996
2 28376  98.2918  75.5890 0001611  91.9864 268.1520 14.60360389106747
IRS-P5 (CARTOSAT-1)     
1 28649U 05017A   25126.19741810  .00002114  00000+0  22722-3 0  9994
2 28649  97.5702 162.1755 0001466  56.0787 304.0570 14.89543451 83271
SINAH 1                 
1 28893U 05043D   25125.89241842  .00000706  00000+0  14484-3 0  9991
2 28893  98.2319 254.3053 0015829 110.9975 249.2922 14.63684234 40930
EROS B                  
1 29079U 06014A   25126.19003615  .00043131  00000+0  11826-2 0  9990
2 29079  97.3413 239.2886 0006810 178.6412 181.4852 15.37138027 56702
RESURS-DK 1             
1 29228U 06021A   25125.90817557  .00003586  00000+0  22170-3 0  9995
2 29228  69.9339 311.8348 0007377 244.2911 115.7493 15.10782957 41010
