[
  {
    "OBJECT_NAME": "SCD 1",
    "OBJECT_ID": "1993-009B",
    "EPOCH": "2025-05-05T21:57:22.434336",
    "MEAN_MOTION": 14.45838279,
    "ECCENTRICITY": 0.0042222,
    "INCLINATION": 24.9681,
    "RA_OF_ASC_NODE": 201.6765,
    "ARG_OF_PERICENTER": 148.0293,
    "MEAN_ANOMALY": 12.7369,
    "EPHEMERIS_TYPE": 0,
    "CLASSIFICATION_TYPE": "U",
    "NORAD_CAT_ID": 22490,
    "ELEMENT_SET_NO": 999,
    "REV_AT_EPOCH": 70210,
    "BSTAR": 9.8675e-05,
    "MEAN_MOTION_DOT": 5.46e-06,
    "MEAN_MOTION_DDOT": 0
  },
  {
    "OBJECT_NAME": "TECHSAT 1B (GO-32)",
    "OBJECT_ID": "1998-043D",
    "EPOCH": "2025-05-05T20:21:45.426816",
    "MEAN_MOTION": 14.24305774,
    "ECCENTRICITY": 8.6e-05,
    "INCLINATION": 98.9684,
    "RA_OF_ASC_NODE": 104.2471,
    "ARG_OF_PERICENTER": 7.4431,
    "MEAN_ANOMALY": 352.6759,
    "EPHEMERIS_TYPE": 0,
    "CLASSIFICATION_TYPE": "U",
    "NORAD_CAT_ID": 25397,
    "ELEMENT_SET_NO": 999,
    "REV_AT_EPOCH": 39334,
    "BSTAR": 8.5029e-05,
    "MEAN_MOTION_DOT": 1.5e-06,
    "MEAN_MOTION_DDOT": 0
  },
  {
    "OBJECT_NAME": "SCD 2",
    "OBJECT_ID": "1998-060A",
    "EPOCH": "2025-05-05T06:20:04.732224",
    "MEAN_MOTION": 14.45281037,
    "ECCENTRICITY": 0.0017018,
    "INCLINATION": 24.9953,
    "RA_OF_ASC_NODE": 67.3252,
    "ARG_OF_PERICENTER": 132.7479,
    "MEAN_ANOMALY": 359.2538,
    "EPHEMERIS_TYPE": 0,
    "CLASSIFICATION_TYPE": "U",
    "NORAD_CAT_ID": 25504,
    "ELEMENT_SET_NO": 999,
    "REV_AT_EPOCH": 40124,
    "BSTAR": 0.00011281,
    "MEAN_MOTION_DOT": 5.85e-06,
    "MEAN_MOTION_DDOT": 0
  },
  {
    "OBJECT_NAME": "DLR-TUBSAT",
    "OBJECT_ID": "1999-029B",
    "EPOCH": "2025-05-06T04:44:15.247680",
    "MEAN_MOTION": 14.52259082,
    "ECCENTRICITY": 0.0014876,
    "INCLINATION": 98.6334,
    "RA_OF_ASC_NODE": 104.1992,
    "ARG_OF_PERICENTER": 144.1747,
    "MEAN_ANOMALY": 216.0448,
    "EPHEMERIS_TYPE": 0,
    "CLASSIFICATION_TYPE": "U",
    "NORAD_CAT_ID": 25757,
    "ELEMENT_SET_NO": 999,
    "REV_AT_EPOCH": 37427,
    "BSTAR": 6.5302e-05,
    "MEAN_MOTION_DOT": 2.17e-06,
    "MEAN_MOTION_DDOT": 0
  },
  {
    "OBJECT_NAME": "TERRA",
    "OBJECT_ID": "1999-068A",
    "EPOCH": "2025-05-06T03:58:58.746144",
    "MEAN_MOTION": 14.60665808,
    "ECCENTRICITY": 0.0003652,
    "INCLINATION": 98.0007,
    "RA_OF_ASC_NODE": 185.5514,
    "ARG_OF_PERICENTER": 82.0542,
    "MEAN_ANOMALY": 299.395,
    "EPHEMERIS_TYPE": 0,
    "CLASSIFICATION_TYPE": "U",
    "NORAD_CAT_ID": 25994,
    "ELEMENT_SET_NO": 999,
    "REV_AT_EPOCH": 35030,
    "BSTAR": 0.00014981,
    "MEAN_MOTION_DOT": 6.85e-06,
    "MEAN_MOTION_DDOT": 0
  },
  {
    "OBJECT_NAME": "MAROC-TUBSAT",
    "OBJECT_ID": "2001-056D",
    "EPOCH": "2025-05-05T22:47:50.352576",
    "MEAN_MOTION": 13.70240802,
    "ECCENTRICITY": 0.0020624,
    "INCLINATION": 99.7745,
    "RA_OF_ASC_NODE": 290.7336,
    "ARG_OF_PERICENTER": 105.7292,
    "MEAN_ANOMALY": 47.8907,
    "EPHEMERIS_TYPE": 0,
    "CLASSIFICATION_TYPE": "U",
    "NORAD_CAT_ID": 27004,
    "ELEMENT_SET_NO": 999,
    "REV_AT_EPOCH": 17041,
    "BSTAR": 4.6874e-05,
    "MEAN_MOTION_DOT": -5e-08,
    "MEAN_MOTION_DDOT": 0
  },
  {
    "OBJECT_NAME": "AQUA",
    "OBJECT_ID": "2002-022A",
    "EPOCH": "2025-05-06T04:03:53.544672",
    "MEAN_MOTION": 14.61220253,
    "ECCENTRICITY": 0.000165,
    "INCLINATION": 98.3751,
    "RA_OF_ASC_NODE": 84.0013,
    "ARG_OF_PERICENTER": 107.4134,
    "MEAN_ANOMALY": 342.1168,
    "EPHEMERIS_TYPE": 0,
    "CLASSIFICATION_TYPE": "U",
    "NORAD_CAT_ID": 27424,
    "ELEMENT_SET_NO": 999,
    "REV_AT_EPOCH": 22385,
    "BSTAR": 0.00032654,
    "MEAN_MOTION_DOT": 1.561e-05,
    "MEAN_MOTION_DDOT": 0
  },
  {
    "OBJECT_NAME": "IRS-P6 (RESOURCESAT-1)",
    "OBJECT_ID": "2003-046A",
    "EPOCH": "2025-05-06T04:34:43.310784",
    "MEAN_MOTION": 14.35960509,
    "ECCENTRICITY": 0.0065598,
    "INCLINATION": 98.2439,
    "RA_OF_ASC_NODE": 176.4121,
    "ARG_OF_PERICENTER": 122.1752,
    "MEAN_ANOMALY": 329.6501,
    "EPHEMERIS_TYPE": 0,
    "CLASSIFICATION_TYPE": "U",
    "NORAD_CAT_ID": 28051,
    "ELEMENT_SET_NO": 999,
    "REV_AT_EPOCH": 12214,
    "BSTAR": 0.00015057,
    "MEAN_MOTION_DOT": 4.07e-06,
    "MEAN_MOTION_DDOT": 0
  },
  {
    "OBJECT_NAME": "SHIYAN-1 (SY-1)",
    "OBJECT_ID": "2004-012A",
    "EPOCH": "2025-05-05T15:23:57.128352",
    "MEAN_MOTION": 15.22461324,
    "ECCENTRICITY": 0.0007194,
    "INCLINATION": 97.9202,
    "RA_OF_ASC_NODE": 174.8588,
    "ARG_OF_PERICENTER": 19.5736,
    "MEAN_ANOMALY": 340.5774,
    "EPHEMERIS_TYPE": 0,
    "CLASSIFICATION_TYPE": "U",
    "NORAD_CAT_ID": 28220,
    "ELEMENT_SET_NO": 999,
    "REV_AT_EPOCH": 14887,
    "BSTAR": 0.00053214,
    "MEAN_MOTION_DOT": 0.00012257,
    "MEAN_MOTION_DDOT": 0
  },
  {
    "OBJECT_NAME": "AURA",
    "OBJECT_ID": "2004-026A",
    "EPOCH": "2025-05-05T20:38:39.849216",
    "MEAN_MOTION": 14.60360389,
    "ECCENTRICITY": 0.0001611,
    "INCLINATION": 98.2918,
    "RA_OF_ASC_NODE": 75.589,
    "ARG_OF_PERICENTER": 91.9864,
    "MEAN_ANOMALY": 268.152,
    "EPHEMERIS_TYPE": 0,
    "CLASSIFICATION_TYPE": "U",
    "NORAD_CAT_ID": 28376,
    "ELEMENT_SET_NO": 999,
    "REV_AT_EPOCH": 10674,
    "BSTAR": 0.00031518,
    "MEAN_MOTION_DOT": 1.477e-05,
    "MEAN_MOTION_DDOT": 0
  },
  {
    "OBJECT_NAME": "IRS-P5 (CARTOSAT-1)",
    "OBJECT_ID": "2005-017A",
    "EPOCH": "2025-05-06T04:44:16.923840",
    "MEAN_MOTION": 14.89543451,
    "ECCENTRICITY": 0.0001466,
    "INCLINATION": 97.5702,
    "RA_OF_ASC_NODE": 162.1755,
    "ARG_OF_PERICENTER": 56.0787,
    "MEAN_ANOMALY": 304.057,
    "EPHEMERIS_TYPE": 0,
    "CLASSIFICATION_TYPE": "U",
    "NORAD_CAT_ID": 28649,
    "ELEMENT_SET_NO": 999,
    "REV_AT_EPOCH": 8327,
    "BSTAR": 0.00022722,
    "MEAN_MOTION_DOT": 2.114e-05,
    "MEAN_MOTION_DDOT": 0
  },
  {
    "OBJECT_NAME": "SINAH 1",
    "OBJECT_ID": "2005-043D",
    "EPOCH": "2025-05-05T21:25:04.951488",
    "MEAN_MOTION": 14.63684234,
    "ECCENTRICITY": 0.0015829,
    "INCLINATION": 98.2319,
    "RA_OF_ASC_NODE": 254.3053,
    "ARG_OF_PERICENTER": 110.9975,
    "MEAN_ANOMALY": 249.2922,
    "EPHEMERIS_TYPE": 0,
    "CLASSIFICATION_TYPE": "U",
    "NORAD_CAT_ID": 28893,
    "ELEMENT_SET_NO": 999,
    "REV_AT_EPOCH": 4093,
    "BSTAR": 0.00014484,
    "MEAN_MOTION_DOT": 7.06e-06,
    "MEAN_MOTION_DDOT": 0
  },
  {
    "OBJECT_NAME": "EROS B",
    "OBJECT_ID": "2006-014A",
    "EPOCH": "2025-05-06T04:33:39.123360",
    "MEAN_MOTION": 15.37138027,
    "ECCENTRICITY": 0.000681,
    "INCLINATION": 97.3413,
    "RA_OF_ASC_NODE": 239.2886,
    "ARG_OF_PERICENTER": 178.6412,
    "MEAN_ANOMALY": 181.4852,
    "EPHEMERIS_TYPE": 0,
    "CLASSIFICATION_TYPE": "U",
    "NORAD_CAT_ID": 29079,
    "ELEMENT_SET_NO": 999,
    "REV_AT_EPOCH": 5670,
    "BSTAR": 0.0011826,
    "MEAN_MOTION_DOT": 0.00043131,
    "MEAN_MOTION_DDOT": 0
  },
  {
    "OBJECT_NAME": "RESURS-DK 1",
    "OBJECT_ID": "2006-021A",
    "EPOCH": "2025-05-05T21:47:46.369248",
    "MEAN_MOTION": 15.10782957,
    "ECCENTRICITY": 0.0007377,
    "INCLINATION": 69.9339,
    "RA_OF_ASC_NODE": 311.8348,
    "ARG_OF_PERICENTER": 244.2911,
    "MEAN_ANOMALY": 115.7493,
    "EPHEMERIS_TYPE": 0,
    "CLASSIFICATION_TYPE": "U",
    "NORAD_CAT_ID": 29228,
    "ELEMENT_SET_NO": 999,
    "REV_AT_EPOCH": 4101,
    "BSTAR": 0.0002217,
    "MEAN_MOTION_DOT": 3.586e-05,
    "MEAN_MOTION_DDOT": 0
  }
]